IRIDIUM 150             
1 43257U 18030J   24066.67017789 -.00000045  00000+0 -23156-4 0  9997
2 43257  86.3919 278.3859 0002222  94.1989 265.9461 14.34217379310850
IRIDIUM 143             
1 43258U 18030K   24067.13953050  .00000151  00000+0  46774-4 0  9997
2 43258  86.3925 278.2494 0002527  88.7668 271.3817 14.34217373310864
IRIDIUM 161             
1 43478U 18047C   24066.78283054  .00000300  00000+0  83224-4 0  9996
2 43478  86.4431  76.3604 0002261  91.0281 269.1179 14.43296097305077
IRIDIUM 152             
1 43479U 18047D   24067.11224917  .00000121  00000+0  36155-4 0  9990
2 43479  86.3906  76.0819 0002357  89.1879 270.9587 14.34217933303237
IRIDIUM 147             
1 43480U 18047E   24066.56044326  .00000160  00000+0  49908-4 0  9997
2 43480  86.3904  76.3033 0002020  91.4190 268.7237 14.34217469303148
IRIDIUM 110             
1 43481U 18047F   24066.77609037  .00000135  00000+0  41136-4 0  9994
2 43481  86.3910  76.2834 0001922  99.0232 261.1182 14.34218172303165
IRIDIUM 162             
1 43482U 18047G   24066.56869136  .00000294  00000+0  81280-4 0  9990
2 43482  86.4430  76.3514 0002172  89.8605 270.2844 14.43274729305033
IRIDIUM 160             
1 43569U 18061A   24067.00099900  .00000203  00000+0  65447-4 0  9993
2 43569  86.3958  44.5387 0002036  76.5196 283.6227 14.34218759294092
